EUTELSAT 21B            
1 38992U 12062B   25317.92494550  .00000131  00000+0  00000+0 0  9991
2 38992   0.0711   6.9152 0003182 239.3454 161.6115  1.00272378 47663
EUTELSAT 70B            
1 39020U 12069A   25317.89643369 -.00000043  00000+0  00000+0 0  9994
2 39020   0.0650 347.1736 0004392 240.2992 219.0267  1.00270970 47356
EUTELSAT 117 WEST A     
1 39122U 13012A   25317.85916682 -.00000013  00000+0  00000+0 0  9990
2 39122   0.0474  80.0127 0003044 158.8624   6.8552  1.00271737 46270
EUTELSAT 7B             
1 39163U 13022A   25317.88386696  .00000049  00000+0  00000+0 0  9993
2 39163   0.0802  27.2622 0003458 281.4876  69.6924  1.00272855 45792
EXPRESS-AT1             
1 39612U 14010A   25317.96490075  .00000079  00000+0  00000+0 0  9999
2 39612   0.0132 261.3533 0000368 277.5107 277.8389  1.00273113 42668
EXPRESS-AT2             
1 39613U 14010B   25317.91021377 -.00000280  00000+0  00000+0 0  9995
2 39613   0.0189 268.2720 0001541  30.8294 221.7127  1.00271647 42349
EUTELSAT 3B             
1 39773U 14030A   25317.88169916  .00000020  00000+0  00000+0 0  9993
2 39773   0.0663   4.0703 0004725 214.7126 154.9802  1.00270967 41906
EUTELSAT 115 WEST B     
1 40425U 15010B   25316.50408995 -.00000029  00000+0  00000+0 0  9999
2 40425   0.0114 134.6964 0000330 322.1287  21.6436  1.00272057 39229
